OBJECT_NAME,OBJECT_ID,EPOCH,MEAN_MOTION,ECCENTRICITY,INCLINATION,RA_OF_ASC_NODE,ARG_OF_PERICENTER,MEAN_ANOMALY,EPHEMERIS_TYPE,CLASSIFICATION_TYPE,NORAD_CAT_ID,ELEMENT_SET_NO,REV_AT_EPOCH,BSTAR,MEAN_MOTION_DOT,MEAN_MOTION_DDOT
ONEWEB-0053,2020-008AC,2026-06-26T21:32:12.913152,13.10372861,.00022193,87.8829,34.3495,74.5996,285.5376,0,U,45157,999,30918,.30890742E-2,.1091E-4,0
ONEWEB-0054,2020-008AD,2026-06-26T20:33:36.836640,13.10360251,.00019013,87.8835,34.3417,85.0587,275.0757,0,U,45158,999,30929,.49894295E-2,.1754E-4,0
ONEWEB-0056,2020-008AE,2026-06-26T19:51:50.560128,13.10375080,.00021286,87.8831,34.3406,88.4007,271.7364,0,U,45159,999,30944,.1774497E-2,.632E-5,0
ONEWEB-0057,2020-008AF,2026-06-26T20:16:40.059840,13.10375790,.0001975,87.8825,34.3493,70.0498,290.0842,0,U,45160,999,30961,-.11340667E-2,-.383E-5,0
ONEWEB-0058,2020-008AG,2026-06-26T07:07:59.896128,13.10370763,.0001654,87.8818,34.4638,90.0122,270.1195,0,U,45161,999,30961,.11085E-2,.4E-5,0
ONEWEB-0059,2020-008AH,2026-06-26T19:52:14.581920,13.10367738,.00016929,87.8822,34.3569,76.8932,283.2384,0,U,45162,999,30958,.16609059E-2,.592E-5,0
ONEWEB-0062,2020-008AJ,2026-06-26T20:26:03.195168,13.10371422,.00017962,87.8829,34.3408,95.5227,264.6105,0,U,45163,999,30945,-.12698099E-2,-.431E-5,0
ONEWEB-0065,2020-008AK,2026-06-26T23:04:54.509664,13.10372169,.00020112,87.8834,34.3267,77.8612,282.2741,0,U,45164,999,30916,.32345052E-2,.1142E-4,0
ONEWEB-0066,2020-020A,2026-06-26T20:04:23.525760,13.11417973,.00016387,87.8880,19.1499,85.8624,274.2691,0,U,45424,999,30394,-.4109981E-4,-.2E-7,0
ONEWEB-0067,2020-020B,2026-06-26T22:48:43.930944,13.11422764,.00018885,87.8900,19.0508,82.6063,277.5279,0,U,45425,999,30401,.16133966E-3,.7E-6,0
ONEWEB-0080,2020-020C,2026-06-26T22:48:10.574496,13.11414346,.00017755,87.8891,19.1246,97.7050,262.4279,0,U,45426,999,30398,.25109766E-3,.102E-5,0
ONEWEB-0090,2020-020D,2026-06-26T19:49:56.368704,13.11417634,.0001836,87.8892,19.1536,89.7059,270.4279,0,U,45427,999,30393,-.97303921E-3,-.332E-5,0
ONEWEB-0061,2020-020E,2026-06-26T22:25:48.527616,13.11416652,.00017823,87.8889,19.1164,88.1350,271.9982,0,U,45428,999,30390,.15545925E-2,.564E-5,0
ONEWEB-0081,2020-020F,2026-06-26T20:09:16.668864,13.11418508,.00017332,87.8886,19.1453,81.7056,278.4268,0,U,45429,999,30400,.34359704E-3,.134E-5,0
ONEWEB-0069,2020-020G,2026-06-26T22:01:47.334144,13.11416997,.00017982,87.8886,19.1328,85.4138,274.7195,0,U,45430,999,30394,.28490822E-3,.114E-5,0
ONEWEB-0031,2020-020H,2026-06-26T22:52:51.204288,13.11414243,.00018371,87.8876,19.1302,93.9910,266.1428,0,U,45431,999,30393,-.23010373E-3,-.69E-6,0
ONEWEB-0027,2020-020J,2026-06-26T21:43:16.718304,13.17651946,.00022049,87.9134,3.9318,101.3251,258.8129,0,U,45432,999,30763,.66826146E-4,.39E-6,0
ONEWEB-0064,2020-020K,2026-06-26T22:50:25.088928,13.11415023,.00019045,87.8881,19.1227,92.7938,267.3408,0,U,45433,999,30396,.23485366E-3,.96E-6,0
ONEWEB-0018,2020-020L,2026-06-26T19:56:51.151776,13.11418818,.0001412,87.8885,19.1462,88.1583,271.9706,0,U,45434,999,30389,-.14602427E-2,-.505E-5,0
ONEWEB-0083,2020-020M,2026-06-26T19:42:36.660960,13.11418150,.00017882,87.8890,19.1426,89.0865,271.0467,0,U,45435,999,30393,-.12337577E-2,-.425E-5,0
ONEWEB-0095,2020-020N,2026-06-26T23:10:07.601664,13.11414854,.00025173,87.8888,19.1224,87.1823,272.9593,0,U,45436,999,30395,-.13548273E-2,-.467E-5,0
ONEWEB-0092,2020-020P,2026-06-26T22:04:01.230816,13.11412769,.0002052,87.8890,19.1227,82.2468,277.8893,0,U,45437,999,30406,.83353814E-3,.308E-5,0
ONEWEB-0085,2020-020Q,2026-06-26T19:42:12.933792,13.11417891,.00018565,87.8883,19.1483,87.9478,272.1863,0,U,45438,999,30393,-.13429283E-2,-.463E-5,0
ONEWEB-0096,2020-020R,2026-06-26T06:55:45.958368,13.11416249,.0001963,87.8888,19.2512,88.3357,271.7995,0,U,45439,999,30385,-.12038E-2,-.414E-5,0
ONEWEB-0037,2020-020S,2026-06-26T22:17:22.984800,13.11912966,.00019209,87.8901,19.0963,86.2441,273.8907,0,U,45440,999,30397,.11020614E-2,.406E-5,0
ONEWEB-0042,2020-020T,2026-06-26T23:09:44.786880,13.11416076,.0001791,87.8887,19.1126,84.6158,275.5175,0,U,45441,999,30394,-.14198329E-2,-.49E-5,0
ONEWEB-0098,2020-020U,2026-06-26T23:03:49.926528,13.11416708,.00018189,87.8885,19.1230,90.3628,269.7709,0,U,45442,999,30392,-.10311319E-2,-.353E-5,0
ONEWEB-0055,2020-020V,2026-06-26T22:33:08.741664,13.11417509,.00018089,87.8888,19.1257,89.9163,270.2172,0,U,45443,999,30389,.15164305E-2,.55E-5,0
ONEWEB-0093,2020-020W,2026-06-26T22:04:13.858176,13.11418007,.00017097,87.8891,19.1228,74.1345,285.9971,0,U,45444,999,30395,.76873787E-3,.285E-5,0
ONEWEB-0029,2020-020X,2026-06-26T22:43:17.329440,13.11414029,.0001654,87.8878,19.1258,82.2932,277.8384,0,U,45445,999,30393,.6210329E-3,.233E-5,0
