ONEWEB-0053             
1 45157U 20008AC  26177.89737168  .00001091  00000+0  30891-2 0  9997
2 45157  87.8829  34.3495 0002219  74.5996 285.5376 13.10372861309187
ONEWEB-0054             
1 45158U 20008AD  26177.85667635  .00001754  00000+0  49894-2 0  9994
2 45158  87.8835  34.3417 0001901  85.0587 275.0757 13.10360251309298
ONEWEB-0056             
1 45159U 20008AE  26177.82766852  .00000632  00000+0  17745-2 0  9997
2 45159  87.8831  34.3406 0002128  88.4007 271.7364 13.10375080309449
ONEWEB-0057             
1 45160U 20008AF  26177.84490810 -.00000383  00000+0 -11341-2 0  9990
2 45160  87.8825  34.3493 0001975  70.0498 290.0842 13.10375790309612
ONEWEB-0058             
1 45161U 20008AG  26177.29722102  .00000400  00000+0  11085-2 0  9995
2 45161  87.8818  34.4638 0001654  90.0122 270.1195 13.10370763309612
ONEWEB-0059             
1 45162U 20008AH  26177.82794655  .00000592  00000+0  16609-2 0  9996
2 45162  87.8822  34.3569 0001692  76.8932 283.2384 13.10367738309582
ONEWEB-0062             
1 45163U 20008AJ  26177.85142587 -.00000431  00000+0 -12698-2 0  9999
2 45163  87.8829  34.3408 0001796  95.5227 264.6105 13.10371422309457
ONEWEB-0065             
1 45164U 20008AK  26177.96174201  .00001142  00000+0  32345-2 0  9999
2 45164  87.8834  34.3267 0002011  77.8612 282.2741 13.10372169309168
ONEWEB-0066             
1 45424U 20020A   26177.83638340 -.00000002  00000+0 -41100-4 0  9994
2 45424  87.8880  19.1499 0001638  85.8624 274.2691 13.11417973303941
ONEWEB-0067             
1 45425U 20020B   26177.95050846  .00000070  00000+0  16134-3 0  9998
2 45425  87.8900  19.0508 0001888  82.6063 277.5279 13.11422764304015
ONEWEB-0080             
1 45426U 20020C   26177.95012239  .00000102  00000+0  25110-3 0  9993
2 45426  87.8891  19.1246 0001775  97.7050 262.4279 13.11414346303988
ONEWEB-0090             
1 45427U 20020D   26177.82634686 -.00000332  00000+0 -97304-3 0  9997
2 45427  87.8892  19.1536 0001836  89.7059 270.4279 13.11417634303937
ONEWEB-0061             
1 45428U 20020E   26177.93458944  .00000564  00000+0  15546-2 0  9993
2 45428  87.8889  19.1164 0001782  88.1350 271.9982 13.11416652303901
ONEWEB-0081             
1 45429U 20020F   26177.83977626  .00000134  00000+0  34360-3 0  9995
2 45429  87.8886  19.1453 0001733  81.7056 278.4268 13.11418508304001
ONEWEB-0069             
1 45430U 20020G   26177.91790896  .00000114  00000+0  28491-3 0  9994
2 45430  87.8886  19.1328 0001798  85.4138 274.7195 13.11416997303947
ONEWEB-0031             
1 45431U 20020H   26177.95337042 -.00000069  00000+0 -23010-3 0  9992
2 45431  87.8876  19.1302 0001837  93.9910 266.1428 13.11414243303930
ONEWEB-0027             
1 45432U 20020J   26177.90505461  .00000039  00000+0  66826-4 0  9998
2 45432  87.9134   3.9318 0002204 101.3251 258.8129 13.17651946307634
ONEWEB-0064             
1 45433U 20020K   26177.95167927  .00000096  00000+0  23485-3 0  9991
2 45433  87.8881  19.1227 0001904  92.7938 267.3408 13.11415023303967
ONEWEB-0018             
1 45434U 20020L   26177.83114759 -.00000505  00000+0 -14602-2 0  9991
2 45434  87.8885  19.1462 0001412  88.1583 271.9706 13.11418818303891
ONEWEB-0083             
1 45435U 20020M   26177.82125765 -.00000425  00000+0 -12338-2 0  9995
2 45435  87.8890  19.1426 0001788  89.0865 271.0467 13.11418150303936
ONEWEB-0095             
1 45436U 20020N   26177.96536576 -.00000467  00000+0 -13548-2 0  9997
2 45436  87.8888  19.1224 0002517  87.1823 272.9593 13.11414854303953
ONEWEB-0092             
1 45437U 20020P   26177.91945869  .00000308  00000+0  83354-3 0  9997
2 45437  87.8890  19.1227 0002052  82.2468 277.8893 13.11412769304068
ONEWEB-0085             
1 45438U 20020Q   26177.82098303 -.00000463  00000+0 -13429-2 0  9999
2 45438  87.8883  19.1483 0001856  87.9478 272.1863 13.11417891303930
ONEWEB-0096             
1 45439U 20020R   26177.28872637 -.00000414  00000+0 -12038-2 0  9991
2 45439  87.8888  19.2512 0001963  88.3357 271.7995 13.11416249303858
ONEWEB-0037             
1 45440U 20020S   26177.92873825  .00000406  00000+0  11021-2 0  9994
2 45440  87.8901  19.0963 0001920  86.2441 273.8907 13.11912966303974
ONEWEB-0042             
1 45441U 20020T   26177.96510170 -.00000490  00000+0 -14198-2 0  9993
2 45441  87.8887  19.1126 0001791  84.6158 275.5175 13.11416076303947
ONEWEB-0098             
1 45442U 20020U   26177.96099452 -.00000353  00000+0 -10311-2 0  9990
2 45442  87.8885  19.1230 0001818  90.3628 269.7709 13.11416708303926
ONEWEB-0055             
1 45443U 20020V   26177.93968451  .00000550  00000+0  15164-2 0  9990
2 45443  87.8888  19.1257 0001808  89.9163 270.2172 13.11417509303893
ONEWEB-0093             
1 45444U 20020W   26177.91960484  .00000285  00000+0  76874-3 0  9998
2 45444  87.8891  19.1228 0001709  74.1345 285.9971 13.11418007303955
ONEWEB-0029             
1 45445U 20020X   26177.94672835  .00000233  00000+0  62103-3 0  9995
2 45445  87.8878  19.1258 0001654  82.2932 277.8384 13.11414029303931
